ONEWEB-0432             
1 50502U 21132AK  23059.44141249  .00000058  00000+0  11387-3 0  9994
2 50502  87.9221 214.8301 0001275  92.8237 267.3041 13.18685625 62802
ONEWEB-0432             
1 50502U 21132AK  23059.44141249  .00000058  00000+0  11387-3 0  9994
2 50502  87.9221 214.8301 0001275  92.8237 267.3041 13.18685625 64107
ONEWEB-0432             
1 50502U 21132AK  23059.89667155  .00000028  00000+0  37809-4 0  9997
2 50502  87.9222 214.7399 0001268  93.3925 266.7352 13.18685902 62863
ONEWEB-0432             
1 50502U 21132AK  23060.50368347  .00000063  00000+0  12588-3 0  9993
2 50502  87.9222 214.6197 0001282  93.4878 266.6401 13.18686159 64245
ONEWEB-0432             
1 50502U 21132AK  23060.88306690  .00000005  00000+0 -20195-4 0  9998
2 50502  87.9223 214.5445 0001287  94.0168 266.1111 13.18685270 62991
ONEWEB-0432             
1 50502U 21132AK  23061.79358617 -.00000144  00000+0 -39727-3 0  9990
2 50502  87.9226 214.3642 0001230  94.1926 265.9347 13.18684477 63113
ONEWEB-0432             
1 50502U 21132AK  23062.40039509  .00021909  00000+0  55265-1 0  9998
2 50502  87.9227 214.2439 0001262  97.5599 262.5676 13.18859371 64492
ONEWEB-0432             
1 50502U 21132AK  23062.47626058  .00021862  00000+0  55144-1 0  9990
2 50502  87.9228 214.2289 0001246  98.5829 261.5445 13.18862603 63208
ONEWEB-0432             
1 50502U 21132AK  23062.85558747  .00021481  00000+0  54173-1 0  9999
2 50502  87.9229 214.1538 0001216  98.6490 261.4780 13.18875699 63252
